H1 CPF 01  gfz 2021 10 13 00  7861 terrasarx 
H2 0702601  6201 31698    2021 10 13 00 59 42 2021 10 18 00 00 42   120 1 1  0 0 0
H9
10 0 59504  55422.000000  0    5348333.443   4307467.823    544965.648
10 0 59504  55542.000000  0    5354992.746   4085306.085   1439915.642
10 0 59504  55662.000000  0    5263518.116   3792457.333   2309510.630
10 0 59504  55782.000000  0    5074323.086   3435749.634   3138434.526
10 0 59504  55902.000000  0    4789674.620   3023115.624   3912094.161
10 0 59504  56022.000000  0    4413666.469   2563416.248   4616881.512
10 0 59504  56142.000000  0    3952157.174   2066248.868   5240414.060
10 0 59504  56262.000000  0    3412671.967   1541745.975   5771753.438
10 0 59504  56382.000000  0    2804271.808   1000365.922   6201593.341
10 0 59504  56502.000000  0    2137394.888    452682.424   6522415.285
10 0 59504  56622.000000  0    1423673.989    -90820.892   6728613.311
10 0 59504  56742.000000  0     675731.302   -619950.127   6816588.336
10 0 59504  56862.000000  0     -93046.719  -1124992.433   6784806.935
10 0 59504  56982.000000  0    -868749.026  -1596893.656   6633825.584
10 0 59504  57102.000000  0   -1637191.080  -2027420.711   6366280.365
10 0 59504  57222.000000  0   -2384172.039  -2409304.610   5986842.710
10 0 59504  57342.000000  0   -3095735.801  -2736363.818   5502145.319
10 0 59504  57462.000000  0   -3758435.879  -3003607.847   4920674.019
10 0 59504  57582.000000  0   -4359594.447  -3207315.769   4252623.148
10 0 59504  57702.000000  0   -4887549.941  -3345088.642   3509720.549
10 0 59504  57822.000000  0   -5331889.288  -3415875.046   2705024.512
10 0 59504  57942.000000  0   -5683660.782  -3419969.977   1852694.959
10 0 59504  58062.000000  0   -5935561.238  -3358986.110    967740.216
10 0 59504  58182.000000  0   -6082091.299  -3235796.484     65746.034
10 0 59504  58302.000000  0   -6119675.948  -3054451.286   -837406.704
10 0 59504  58422.000000  0   -6046746.722  -2820070.468  -1725831.562
10 0 59504  58542.000000  0   -5863781.307  -2538714.017  -2583925.096
10 0 59504  58662.000000  0   -5573302.131  -2217235.067  -3396646.382
10 0 59504  58782.000000  0   -5179834.701  -1863119.526  -4149783.698
10 0 59504  58902.000000  0   -4689827.071  -1484316.206  -4830202.122
10 0 59504  59022.000000  0   -4111533.520  -1089061.901  -5426068.735
10 0 59504  59142.000000  0   -3454864.569   -685704.979  -5927050.921
10 0 59504  59262.000000  0   -2731208.550   -282532.208  -6324484.845
10 0 59504  59382.000000  0   -1953228.991    112397.714  -6611513.634
10 0 59504  59502.000000  0   -1134640.793    491410.345  -6783194.187
10 0 59504  59622.000000  0    -289971.047    847359.617  -6836572.638
10 0 59504  59742.000000  0     565693.048   1173759.052  -6770728.959
10 0 59504  59862.000000  0    1416965.980   1464895.903  -6586792.637
10 0 59504  59982.000000  0    2248435.315   1715929.830  -6287927.063
10 0 59504  60102.000000  0    3044935.770   1922972.903  -5879280.685
10 0 59504  60222.000000  0    3791822.304   2083149.411  -5367906.278
10 0 59504  60342.000000  0    4475238.075   2194635.471  -4762650.887
10 0 59504  60462.000000  0    5082375.396   2256678.001  -4074014.245
10 0 59504  60582.000000  0    5601722.025   2269591.400  -3313975.914
10 0 59504  60702.000000  0    6023287.849   2234732.152  -2495795.113
10 0 59504  60822.000000  0    6338808.775   2154451.829  -1633783.944
10 0 59504  60942.000000  0    6541919.192   2032028.650   -743056.476
10 0 59504  61062.000000  0    6628289.994   1871578.690    160739.679
10 0 59504  61182.000000  0    6595725.651   1677948.460   1061705.794
10 0 59504  61302.000000  0    6444219.558   1456592.839   1943977.900
10 0 59504  61422.000000  0    6175967.424   1213440.074   2792016.056
10 0 59504  61542.000000  0    5795333.544    954747.197   3590886.498
10 0 59504  61662.000000  0    5308774.069    686950.699   4326531.504
10 0 59504  61782.000000  0    4724718.147    416515.638   4986019.312
10 0 59504  61902.000000  0    4053413.229    149787.947   5557772.272
10 0 59504  62022.000000  0    3306734.420   -107148.595   6031768.358
10 0 59504  62142.000000  0    2497965.338   -348604.785   6399710.640
10 0 59504  62262.000000  0    1641556.647   -569406.782   6655166.581
10 0 59504  62382.000000  0     752864.161   -765003.502   6793675.765
10 0 59504  62502.000000  0    -152129.423   -931558.283   6812822.640
10 0 59504  62622.000000  0   -1057101.856  -1066023.027   6712274.789
10 0 59504  62742.000000  0   -1945684.534  -1166194.044   6493787.523
10 0 59504  62862.000000  0   -2801756.656  -1230747.777   6161174.415
10 0 59504  62982.000000  0   -3609736.735  -1259256.498   5720246.584
10 0 59504  63102.000000  0   -4354869.983  -1252184.890   5178718.543
10 0 59504  63222.000000  0   -5023503.808  -1210867.157   4546079.084
10 0 59504  63342.000000  0   -5603345.739  -1137463.784   3833429.243
10 0 59504  63462.000000  0   -6083697.488  -1034899.194   3053289.911
10 0 59504  63582.000000  0   -6455661.201   -906781.760   2219383.781
10 0 59504  63702.000000  0   -6712315.634   -757307.971   1346392.737
10 0 59504  63822.000000  0   -6848853.444   -591152.771    449692.766
10 0 59504  63942.000000  0   -6862675.515   -413348.831   -454924.878
10 0 59504  64062.000000  0   -6753441.439   -229157.680  -1351540.779
10 0 59504  64182.000000  0   -6523073.277    -43936.083  -2224396.095
10 0 59504  64302.000000  0   -6175715.854    136998.028  -3058175.448
10 0 59504  64422.000000  0   -5717652.977    308498.059  -3838282.016
10 0 59504  64542.000000  0   -5157180.343    465715.803  -4551094.574
10 0 59504  64662.000000  0   -4504442.014    604219.354  -5184202.519
10 0 59504  64782.000000  0   -3771234.345    720100.075  -5726614.996
10 0 59504  64902.000000  0   -2970783.027    810065.250  -6168942.220
10 0 59504  65022.000000  0   -2117498.294    871515.089  -6503545.796
10 0 59504  65142.000000  0   -1226714.039    902603.845  -6724659.713
10 0 59504  65262.000000  0    -314413.428    902283.641  -6828478.890
10 0 59504  65382.000000  0     603051.604    870329.996  -6813216.240
10 0 59504  65502.000000  0    1509245.192    807349.020  -6679132.172
10 0 59504  65622.000000  0    2387936.561    714766.350  -6428531.939
10 0 59504  65742.000000  0    3223385.109    594797.994  -6065730.008
10 0 59504  65862.000000  0    4000618.724    450403.356  -5596982.722
10 0 59504  65982.000000  0    4705700.581    285220.199  -5030390.894
10 0 59504  66102.000000  0    5325982.634    103484.110  -4375771.884
10 0 59504  66222.000000  0    5850340.121    -90067.618  -3644499.638
10 0 59504  66342.000000  0    6269380.560   -290305.516  -2849315.706
10 0 59504  66462.000000  0    6575624.583   -491828.978  -2004113.765
10 0 59504  66582.000000  0    6763652.751   -689095.991  -1123698.285
10 0 59504  66702.000000  0    6830212.916   -876558.014   -223523.129
10 0 59504  66822.000000  0    6774285.998  -1048797.345    680584.508
10 0 59504  66942.000000  0    6597107.261  -1200663.404   1572710.235
10 0 59504  67062.000000  0    6302142.690  -1327404.574   2437141.304
10 0 59504  67182.000000  0    5895018.888  -1424791.105   3258653.359
10 0 59504  67302.000000  0    5383409.706  -1489226.427   4022785.153
10 0 59504  67422.000000  0    4776883.359  -1517845.178   4716097.755
10 0 59504  67542.000000  0    4086713.661  -1508593.575   5326412.212
10 0 59504  67662.000000  0    3325661.402  -1460291.033   5843022.557
10 0 59504  67782.000000  0    2507729.171  -1372672.832   6256880.005
10 0 59504  67902.000000  0    1647897.486  -1246412.567   6560745.416
10 0 59504  68022.000000  0     761846.005  -1083124.221   6749310.659
10 0 59504  68142.000000  0    -134335.303   -885342.711   6819285.459
10 0 59504  68262.000000  0   -1024438.314   -656484.355   6769449.798
10 0 59504  68382.000000  0   -1892428.343   -400788.006   6600673.337
10 0 59504  68502.000000  0   -2722731.412   -123236.956   6315901.187
10 0 59504  68622.000000  0   -3500513.294    170536.878   5920106.854
10 0 59504  68742.000000  0   -4211947.063    474364.874   5420211.447
10 0 59504  68862.000000  0   -4844463.966    781668.047   4824968.580
10 0 59504  68982.000000  0   -5386982.864   1085595.662   4144816.895
10 0 59504  69102.000000  0   -5830112.928   1379173.647   3391700.406
10 0 59504  69222.000000  0   -6166324.973   1655459.364   2578860.866
10 0 59504  69342.000000  0   -6390088.596   1907699.249   1720604.397
10 0 59504  69462.000000  0   -6497971.419   2129485.746    832046.109
10 0 59504  69582.000000  0   -6488696.265   2314909.885    -71163.541
10 0 59504  69702.000000  0   -6363154.099   2458704.189   -973123.153
10 0 59504  69822.000000  0   -6124373.267   2556373.015  -1857969.076
10 0 59504  69942.000000  0   -5777446.445   2604307.674  -2710162.730
10 0 59504  70062.000000  0   -5329415.265   2599882.661  -3514770.580
10 0 59504  70182.000000  0   -4789117.407   2541529.887  -4257728.528
10 0 59504  70302.000000  0   -4167001.644   2428790.510  -4926086.450
10 0 59504  70422.000000  0   -3474915.235   2262343.527  -5508228.143
10 0 59504  70542.000000  0   -2725870.914   2044011.380  -5994063.814
10 0 59504  70662.000000  0   -1933797.869   1776742.554  -6375195.303
10 0 59504  70782.000000  0   -1113279.604   1464571.077  -6645049.709
10 0 59504  70902.000000  0    -279287.595   1112554.691  -6798980.958
10 0 59504  71022.000000  0     553086.583    726693.112  -6834340.560
10 0 59504  71142.000000  0    1368896.938    313828.009  -6750519.789
10 0 59504  71262.000000  0    2153606.666   -118475.943  -6548959.681
10 0 59504  71382.000000  0    2893341.050   -562065.943  -6233128.312
10 0 59504  71502.000000  0    3575129.651  -1008350.388  -5808467.747
10 0 59504  71622.000000  0    4187131.846  -1448460.183  -5282309.028
10 0 59504  71742.000000  0    4718845.377  -1873421.223  -4663758.031
10 0 59504  71862.000000  0    5161292.671  -2274334.951  -3963548.731
99
